{"type": "FeatureCollection", "features": [ {"type": "Feature", "properties": {"norad_id": 66939, "name": "STARLINK-36154", "group": "last-30-days", "lat": 44.64329082895482, "lon": 30.20450190153412, "alt_km": 392.77443630984544, "timestamp": "2025-12-26T09:30:52.343634+00:00", "meta": {"OBJECT_NAME": "STARLINK-36154", "OBJECT_ID": "2025-286Q", "EPOCH": "2025-12-26T04:00:01.998720", "MEAN_MOTION": 15.56869003, "ECCENTRICITY": 0.0001695, "INCLINATION": 53.1593, "RA_OF_ASC_NODE": 343.544, "ARG_OF_PERICENTER": 87.723, "MEAN_ANOMALY": 125.7672, "EPHEMERIS_TYPE": 0, "CLASSIFICATION_TYPE": "U", "NORAD_CAT_ID": 66939, "ELEMENT_SET_NO": 999, "REV_AT_EPOCH": 414, "BSTAR": -0.031103, "MEAN_MOTION_DOT": -0.02033482, "MEAN_MOTION_DDOT": 0}, "tle": {"line1": "1 66939U 25286Q   25360.16668980 -.02033482  00000+0 -31103-1 0  9998", "line2": "2 66939  53.1593 343.5440 0001695  87.7230 125.7672 15.56869003  4144"}}, "geometry": {"type": "Point", "coordinates": [30.20450190153412, 44.64329082895482]}}, {"type": "Feature", "properties": {"norad_id": 66940, "name": "STARLINK-36121", "group": "last-30-days", "lat": 45.65479320580453, "lon": 32.5215194100818, "alt_km": 392.6673397557761, "timestamp": "2025-12-26T09:30:52.343644+00:00", "meta": {"OBJECT_NAME": "STARLINK-36121", "OBJECT_ID": "2025-286R", "EPOCH": "2025-12-26T04:00:01.998720", "MEAN_MOTION": 15.56898219, "ECCENTRICITY": 0.0001529, "INCLINATION": 53.1594, "RA_OF_ASC_NODE": 343.5401, "ARG_OF_PERICENTER": 85.3391, "MEAN_ANOMALY": 130.0548, "EPHEMERIS_TYPE": 0, "CLASSIFICATION_TYPE": "U", "NORAD_CAT_ID": 66940, "ELEMENT_SET_NO": 999, "REV_AT_EPOCH": 414, "BSTAR": -0.031713, "MEAN_MOTION_DOT": -0.02071006, "MEAN_MOTION_DDOT": 0}, "tle": {"line1": "1 66940U 25286R   25360.16668980 -.02071006  00000+0 -31713-1 0  9991", "line2": "2 66940  53.1594 343.5401 0001529  85.3391 130.0548 15.56898219  4144"}}, "geometry": {"type": "Point", "coordinates": [32.5215194100818, 45.65479320580453]}}, {"type": "Feature", "properties": {"norad_id": 66941, "name": "STARLINK-36088", "group": "last-30-days", "lat": 52.8799847985618, "lon": 64.5310361681097, "alt_km": 385.9659105319097, "timestamp": "2025-12-26T09:30:52.343654+00:00", "meta": {"OBJECT_NAME": "STARLINK-36088", "OBJECT_ID": "2025-286S", "EPOCH": "2025-12-26T04:00:01.998720", "MEAN_MOTION": 15.58788359, "ECCENTRICITY": 0.000159, "INCLINATION": 53.1593, "RA_OF_ASC_NODE": 343.4988, "ARG_OF_PERICENTER": 92.4861, "MEAN_ANOMALY": 143.2056, "EPHEMERIS_TYPE": 0, "CLASSIFICATION_TYPE": "U", "NORAD_CAT_ID": 66941, "ELEMENT_SET_NO": 999, "REV_AT_EPOCH": 414, "BSTAR": -0.028793, "MEAN_MOTION_DOT": -0.01988307, "MEAN_MOTION_DDOT": 0}, "tle": {"line1": "1 66941U 25286S   25360.16668980 -.01988307  00000+0 -28793-1 0  9996", "line2": "2 66941  53.1593 343.4988 0001590  92.4861 143.2056 15.58788359  4147"}}, "geometry": {"type": "Point", "coordinates": [64.5310361681097, 52.8799847985618]}}, {"type": "Feature", "properties": {"norad_id": 66942, "name": "STARLINK-36100", "group": "last-30-days", "lat": 46.616710768147364, "lon": 34.91885300986315, "alt_km": 392.4786100413303, "timestamp": "2025-12-26T09:30:52.343664+00:00", "meta": {"OBJECT_NAME": "STARLINK-36100", "OBJECT_ID": "2025-286T", "EPOCH": "2025-12-26T04:00:01.998720", "MEAN_MOTION": 15.56895574, "ECCENTRICITY": 0.0001577, "INCLINATION": 53.1596, "RA_OF_ASC_NODE": 343.5358, "ARG_OF_PERICENTER": 84.062, "MEAN_ANOMALY": 133.2525, "EPHEMERIS_TYPE": 0, "CLASSIFICATION_TYPE": "U", "NORAD_CAT_ID": 66942, "ELEMENT_SET_NO": 999, "REV_AT_EPOCH": 408, "BSTAR": -0.031711, "MEAN_MOTION_DOT": -0.02070698, "MEAN_MOTION_DDOT": 0}, "tle": {"line1": "1 66942U 25286T   25360.16668980 -.02070698  00000+0 -31711-1 0  9997", "line2": "2 66942  53.1596 343.5358 0001577  84.0620 133.2525 15.56895574  4087"}}, "geometry": {"type": "Point", "coordinates": [34.91885300986315, 46.616710768147364]}}, {"type": "Feature", "properties": {"norad_id": 66943, "name": "STARLINK-36109", "group": "last-30-days", "lat": 47.52496436771734, "lon": 37.39733753285764, "alt_km": 392.40904075039, "timestamp": "2025-12-26T09:30:52.343674+00:00", "meta": {"OBJECT_NAME": "STARLINK-36109", "OBJECT_ID": "2025-286U", "EPOCH": "2025-12-26T04:00:01.998720", "MEAN_MOTION": 15.5689971, "ECCENTRICITY": 0.0001504, "INCLINATION": 53.1594, "RA_OF_ASC_NODE": 343.5317, "ARG_OF_PERICENTER": 89.0832, "MEAN_ANOMALY": 130.1457, "EPHEMERIS_TYPE": 0, "CLASSIFICATION_TYPE": "U", "NORAD_CAT_ID": 66943, "ELEMENT_SET_NO": 999, "REV_AT_EPOCH": 408, "BSTAR": -0.03178, "MEAN_MOTION_DOT": -0.02074952, "MEAN_MOTION_DDOT": 0}, "tle": {"line1": "1 66943U 25286U   25360.16668980 -.02074952  00000+0 -31780-1 0  9991", "line2": "2 66943  53.1594 343.5317 0001504  89.0832 130.1457 15.56899710  4087"}}, "geometry": {"type": "Point", "coordinates": [37.39733753285764, 47.52496436771734]}}, {"type": "Feature", "properties": {"norad_id": 66944, "name": "STARLINK-36112", "group": "last-30-days", "lat": 48.37722852907551, "lon": 39.957309755308174, "alt_km": 392.2490128128811, "timestamp": "2025-12-26T09:30:52.343684+00:00", "meta": {"OBJECT_NAME": "STARLINK-36112", "OBJECT_ID": "2025-286V", "EPOCH": "2025-12-26T04:00:01.998720", "MEAN_MOTION": 15.56896706, "ECCENTRICITY": 0.0001573, "INCLINATION": 53.1596, "RA_OF_ASC_NODE": 343.5274, "ARG_OF_PERICENTER": 91.8806, "MEAN_ANOMALY": 129.2644, "EPHEMERIS_TYPE": 0, "CLASSIFICATION_TYPE": "U", "NORAD_CAT_ID": 66944, "ELEMENT_SET_NO": 999, "REV_AT_EPOCH": 414, "BSTAR": -0.031701, "MEAN_MOTION_DOT": -0.0207019, "MEAN_MOTION_DDOT": 0}, "tle": {"line1": "1 66944U 25286V   25360.16668980 -.02070190  00000+0 -31701-1 0  9995", "line2": "2 66944  53.1596 343.5274 0001573  91.8806 129.2644 15.56896706  4146"}}, "geometry": {"type": "Point", "coordinates": [39.957309755308174, 48.37722852907551]}}, {"type": "Feature", "properties": {"norad_id": 66945, "name": "STARLINK-36110", "group": "last-30-days", "lat": 49.17162507344097, "lon": 42.60594401746199, "alt_km": 392.1167835158585, "timestamp": "2025-12-26T09:30:52.343696+00:00", "meta": {"OBJECT_NAME": "STARLINK-36110", "OBJECT_ID": "2025-286W", "EPOCH": "2025-12-26T04:00:01.998720", "MEAN_MOTION": 15.56890832, "ECCENTRICITY": 0.0001558, "INCLINATION": 53.1595, "RA_OF_ASC_NODE": 343.5229, "ARG_OF_PERICENTER": 89.865, "MEAN_ANOMALY": 133.1986, "EPHEMERIS_TYPE": 0, "CLASSIFICATION_TYPE": "U", "NORAD_CAT_ID": 66945, "ELEMENT_SET_NO": 999, "REV_AT_EPOCH": 414, "BSTAR": -0.031528, "MEAN_MOTION_DOT": -0.02059703, "MEAN_MOTION_DDOT": 0}, "tle": {"line1": "1 66945U 25286W   25360.16668980 -.02059703  00000+0 -31528-1 0  9990", "line2": "2 66945  53.1595 343.5229 0001558  89.8650 133.1986 15.56890832  4140"}}, "geometry": {"type": "Point", "coordinates": [42.60594401746199, 49.17162507344097]}}, {"type": "Feature", "properties": {"norad_id": 66946, "name": "STARLINK-36115", "group": "last-30-days", "lat": 49.90368610125228, "lon": 45.339193236442576, "alt_km": 392.0153563958356, "timestamp": "2025-12-26T09:30:52.343706+00:00", "meta": {"OBJECT_NAME": "STARLINK-36115", "OBJECT_ID": "2025-286X", "EPOCH": "2025-12-26T04:00:01.998720", "MEAN_MOTION": 15.56891309, "ECCENTRICITY": 0.0001539, "INCLINATION": 53.1596, "RA_OF_ASC_NODE": 343.5193, "ARG_OF_PERICENTER": 89.6729, "MEAN_ANOMALY": 135.3081, "EPHEMERIS_TYPE": 0, "CLASSIFICATION_TYPE": "U", "NORAD_CAT_ID": 66946, "ELEMENT_SET_NO": 999, "REV_AT_EPOCH": 414, "BSTAR": -0.031573, "MEAN_MOTION_DOT": -0.02062355, "MEAN_MOTION_DDOT": 0}, "tle": {"line1": "1 66946U 25286X   25360.16668980 -.02062355  00000+0 -31573-1 0  9998", "line2": "2 66946  53.1596 343.5193 0001539  89.6729 135.3081 15.56891309  4146"}}, "geometry": {"type": "Point", "coordinates": [45.339193236442576, 49.90368610125228]}}, {"type": "Feature", "properties": {"norad_id": 66947, "name": "STARLINK-36089", "group": "last-30-days", "lat": 51.164462515357755, "lon": 51.04081752673154, "alt_km": 391.78401598294204, "timestamp": "2025-12-26T09:30:52.343716+00:00", "meta": {"OBJECT_NAME": "STARLINK-36089", "OBJECT_ID": "2025-286Y", "EPOCH": "2025-12-26T04:00:01.998720", "MEAN_MOTION": 15.56891338, "ECCENTRICITY": 0.0001584, "INCLINATION": 53.1591, "RA_OF_ASC_NODE": 343.5106, "ARG_OF_PERICENTER": 89.3959, "MEAN_ANOMALY": 139.4184, "EPHEMERIS_TYPE": 0, "CLASSIFICATION_TYPE": "U", "NORAD_CAT_ID": 66947, "ELEMENT_SET_NO": 999, "REV_AT_EPOCH": 414, "BSTAR": -0.031533, "MEAN_MOTION_DOT": -0.02060046, "MEAN_MOTION_DDOT": 0}, "tle": {"line1": "1 66947U 25286Y   25360.16668980 -.02060046  00000+0 -31533-1 0  9990", "line2": "2 66947  53.1591 343.5106 0001584  89.3959 139.4184 15.56891338  4149"}}, "geometry": {"type": "Point", "coordinates": [51.04081752673154, 51.164462515357755]}}, {"type": "Feature", "properties": {"norad_id": 66948, "name": "STARLINK-36116", "group": "last-30-days", "lat": 50.56908803306737, "lon": 48.15260813861059, "alt_km": 391.90310757136194, "timestamp": "2025-12-26T09:30:52.343726+00:00", "meta": {"OBJECT_NAME": "STARLINK-36116", "OBJECT_ID": "2025-286Z", "EPOCH": "2025-12-26T04:00:01.998720", "MEAN_MOTION": 15.56890343, "ECCENTRICITY": 0.0001545, "INCLINATION": 53.1592, "RA_OF_ASC_NODE": 343.5146, "ARG_OF_PERICENTER": 89.0863, "MEAN_ANOMALY": 137.8124, "EPHEMERIS_TYPE": 0, "CLASSIFICATION_TYPE": "U", "NORAD_CAT_ID": 66948, "ELEMENT_SET_NO": 999, "REV_AT_EPOCH": 414, "BSTAR": -0.031531, "MEAN_MOTION_DOT": -0.0205982, "MEAN_MOTION_DDOT": 0}, "tle": {"line1": "1 66948U 25286Z   25360.16668980 -.02059820  00000+0 -31531-1 0  9997", "line2": "2 66948  53.1592 343.5146 0001545  89.0863 137.8124 15.56890343  4144"}}, "geometry": {"type": "Point", "coordinates": [48.15260813861059, 50.56908803306737]}}]}